OBJECT_NAME,OBJECT_ID,EPOCH,MEAN_MOTION,ECCENTRICITY,INCLINATION,RA_OF_ASC_NODE,ARG_OF_PERICENTER,MEAN_ANOMALY,EPHEMERIS_TYPE,CLASSIFICATION_TYPE,NORAD_CAT_ID,ELEMENT_SET_NO,REV_AT_EPOCH,BSTAR,MEAN_MOTION_DOT,MEAN_MOTION_DDOT
STARLINK-37327,2026-082J,2026-07-16T14:20:22.596000,15.33430857,.0002388,97.2837,60.6472,102.2003,257.9507,0,U,68736,999,1420,.35243E-3,.11315E-3,0
STARLINK-37348,2026-082K,2026-07-16T14:08:35.837952,15.33441066,.000167,97.2845,60.6584,92.0575,268.0859,0,U,68737,999,1420,-.19503E-3,-.6366E-4,0
STARLINK-37331,2026-082L,2026-07-16T14:12:31.951872,15.33445626,.0002154,97.2842,60.6538,96.3448,263.8040,0,U,68738,999,1420,.20246E-3,.6467E-4,0
STARLINK-37338,2026-082M,2026-07-16T14:04:42.132000,15.33451657,.0001894,97.2845,60.6612,93.3021,266.8438,0,U,68739,999,1420,.37468E-3,.12043E-3,0
STARLINK-37314,2026-082N,2026-07-16T13:52:57.551232,15.33446768,.0001846,97.2842,60.6732,80.3248,279.8203,0,U,68740,999,1420,.21015E-3,.6716E-4,0
STARLINK-36314,2026-082P,2026-07-16T14:24:16.403040,15.33430624,.0002061,97.2841,60.6453,91.7981,268.3497,0,U,68741,999,1420,.38132E-3,.1225E-3,0
STARLINK-37351,2026-082Q,2026-07-16T13:56:52.349280,15.33442838,.0001934,97.2847,60.6704,86.1327,274.0137,0,U,68742,999,1420,.15738E-3,.5009E-4,0
STARLINK-37354,2026-082R,2026-07-16T14:47:46.178880,15.33445625,.0001758,97.2842,60.7748,92.0601,268.0843,0,U,68743,999,1421,.14177E-3,.4505E-4,0
STARLINK-37344,2026-082S,2026-07-16T15:15:10.604160,15.33450495,.0002156,97.2844,60.7492,101.4478,258.7007,0,U,68744,999,1421,.33214E-3,.10665E-3,0
STARLINK-37267,2026-082T,2026-07-16T14:43:51.996864,15.33428492,.0002706,97.2846,60.7771,85.3279,274.8273,0,U,68745,999,1421,.36588E-4,.1106E-4,0
STARLINK-37347,2026-082U,2026-07-16T13:49:02.418816,15.33449618,.0002292,97.2843,60.6763,100.9913,259.1588,0,U,68746,999,1420,.3019E-3,.9686E-4,0
STARLINK-37268,2026-082V,2026-07-16T14:51:41.099616,15.33448225,.0002406,97.2843,60.7695,101.9790,258.1723,0,U,68747,999,1421,.23134E-3,.7402E-4,0
STARLINK-37325,2026-082W,2026-07-16T14:16:28.218720,15.33395563,.0002173,97.2858,60.6505,125.7638,234.3807,0,U,68748,999,1420,-.3438E-3,-.11142E-3,0
STARLINK-37324,2026-082X,2026-07-16T15:03:25.797024,15.33449979,.0001764,97.2843,60.7636,86.8332,273.3112,0,U,68749,999,1421,.2754E-3,.8828E-4,0
STARLINK-37350,2026-082Y,2026-07-16T14:37:48.827424,15.33453168,.0002983,97.2832,59.7143,88.6044,271.5540,0,U,68750,999,1414,.2235E-3,.715E-4,0
STARLINK-37277,2026-082Z,2026-07-16T19:53:09.754368,15.33448966,.0001734,97.2850,60.9466,94.2198,265.9242,0,U,68751,999,1424,.25893E-3,.8294E-4,0
STARLINK-37342,2026-082AA,2026-07-16T15:07:20.733312,15.33444880,.000175,97.2849,60.7556,91.1622,268.9822,0,U,68752,999,1421,.16035E-3,.5105E-4,0
SL-4 R/B,2026-083A,2026-07-16T19:09:44.663040,15.22807468,.0063995,98.2770,352.1300,126.8924,233.8198,0,U,68753,999,1383,.13479E-3,.3244E-4,0
COSMOS 2609,2026-083B,2026-07-16T18:44:36.913056,15.07483217,.0010487,98.1258,348.3195,338.0035,22.0740,0,U,68754,999,1368,.67368E-4,.952E-5,0
COSMOS 2610,2026-083F,2026-07-16T18:14:53.236896,15.06627662,.0009483,97.8087,336.1092,320.3142,39.7390,0,U,68758,999,1365,.45262E-4,.606E-5,0
COSMOS 2611,2026-083G,2026-07-16T18:37:48.800064,15.06299359,.0010332,97.8151,335.5815,326.9885,33.0696,0,U,68759,999,1364,.63149E-4,.863E-5,0
DAQI-2,2026-084A,2026-07-13T16:03:38.441952,14.57596579,.00027215,98.2866,268.7238,53.8730,306.2720,0,U,68760,999,1275,.9809991E-5,-.2E-7,0
COSMOS 2612,2026-083H,2026-07-16T19:10:32.748096,15.07123935,.0011727,97.8574,336.5001,313.9047,46.1210,0,U,68762,999,1366,.98076E-4,.1408E-4,0
COSMOS 2613,2026-083J,2026-07-16T18:53:49.962912,15.05625527,.0006017,97.7845,336.1294,248.7036,111.3548,0,U,68763,999,1366,.86957E-4,.1191E-4,0
COSMOS 2614,2026-083K,2026-07-16T18:25:15.134592,15.05890546,.0004773,97.7816,335.2352,279.1314,80.9372,0,U,68764,999,1365,.48001E-4,.633E-5,0
STARLINK-37168,2026-086A,2026-07-16T14:43:22.101600,15.33438019,.0001448,97.2842,234.0691,113.0320,247.1076,0,U,68766,999,1359,.10903E-3,.3446E-4,0
STARLINK-37174,2026-086B,2026-07-16T14:39:27.235296,15.33439808,.0001957,97.2835,233.9236,88.2539,271.8928,0,U,68767,999,1358,.1834E-3,.5849E-4,0
STARLINK-37279,2026-086C,2026-07-16T16:05:35.264256,15.33441630,.0000675,97.2826,233.9949,120.4517,239.6793,0,U,68768,999,1359,.22719E-3,.7266E-4,0
STARLINK-36379,2026-086D,2026-07-16T16:09:30.241152,15.33443227,.0000665,97.2833,233.9882,118.2446,241.8864,0,U,68769,999,1359,.29591E-3,.949E-4,0
STARLINK-37417,2026-086E,2026-07-16T15:57:45.582624,15.33437706,.0001466,97.2836,234.0042,117.3387,242.8005,0,U,68770,999,1359,.15051E-3,.4786E-4,0
