STARLINK-37327          
1 68736U 26082J   26197.59748375  .00011315  00000+0  35243-3 0  9991
2 68736  97.2837  60.6472 0002388 102.2003 257.9507 15.33430857 14203
STARLINK-37348          
1 68737U 26082K   26197.58930368 -.00006366  00000+0 -19503-3 0  9999
2 68737  97.2845  60.6584 0001670  92.0575 268.0859 15.33441066 14207
STARLINK-37331          
1 68738U 26082L   26197.59203648  .00006467  00000+0  20246-3 0  9991
2 68738  97.2842  60.6538 0002154  96.3448 263.8040 15.33445626 14209
STARLINK-37338          
1 68739U 26082M   26197.58659875  .00012043  00000+0  37468-3 0  9999
2 68739  97.2845  60.6612 0001894  93.3021 266.8438 15.33451657 14205
STARLINK-37314          
1 68740U 26082N   26197.57844388  .00006716  00000+0  21015-3 0  9996
2 68740  97.2842  60.6732 0001846  80.3248 279.8203 15.33446768 14202
STARLINK-36314          
1 68741U 26082P   26197.60018985  .00012250  00000+0  38132-3 0  9995
2 68741  97.2841  60.6453 0002061  91.7981 268.3497 15.33430624 14204
STARLINK-37351          
1 68742U 26082Q   26197.58116145  .00005009  00000+0  15738-3 0  9991
2 68742  97.2847  60.6704 0001934  86.1327 274.0137 15.33442838 14205
STARLINK-37354          
1 68743U 26082R   26197.61650670  .00004505  00000+0  14177-3 0  9998
2 68743  97.2842  60.7748 0001758  92.0601 268.0843 15.33445625 14210
STARLINK-37344          
1 68744U 26082S   26197.63553940  .00010665  00000+0  33214-3 0  9990
2 68744  97.2844  60.7492 0002156 101.4478 258.7007 15.33450495 14218
STARLINK-37267          
1 68745U 26082T   26197.61379626  .00001106  00000+0  36588-4 0  9994
2 68745  97.2846  60.7771 0002706  85.3279 274.8273 15.33428492 14217
STARLINK-37347          
1 68746U 26082U   26197.57572244  .00009686  00000+0  30190-3 0  9994
2 68746  97.2843  60.6763 0002292 100.9913 259.1588 15.33449618 14201
STARLINK-37268          
1 68747U 26082V   26197.61922569  .00007402  00000+0  23134-3 0  9993
2 68747  97.2843  60.7695 0002406 101.9790 258.1723 15.33448225 14212
STARLINK-37325          
1 68748U 26082W   26197.59477105 -.00011142  00000+0 -34380-3 0  9995
2 68748  97.2858  60.6505 0002173 125.7638 234.3807 15.33395563 14208
STARLINK-37324          
1 68749U 26082X   26197.62738191  .00008828  00000+0  27540-3 0  9990
2 68749  97.2843  60.7636 0001764  86.8332 273.3112 15.33449979 14216
STARLINK-37350          
1 68750U 26082Y   26197.60959291  .00007150  00000+0  22350-3 0  9997
2 68750  97.2832  59.7143 0002983  88.6044 271.5540 15.33453168 14143
STARLINK-37277          
1 68751U 26082Z   26197.82858512  .00008294  00000+0  25893-3 0  9991
2 68751  97.2850  60.9466 0001734  94.2198 265.9242 15.33448966 14249
STARLINK-37342          
1 68752U 26082AA  26197.63010108  .00005105  00000+0  16035-3 0  9998
2 68752  97.2849  60.7556 0001750  91.1622 268.9822 15.33444880 14217
SL-4 R/B                
1 68753U 26083A   26197.79843360  .00003244  00000+0  13479-3 0  9992
2 68753  98.2770 352.1300 0063995 126.8924 233.8198 15.22807468 13834
COSMOS 2609             
1 68754U 26083B   26197.78098279  .00000952  00000+0  67368-4 0  9993
2 68754  98.1258 348.3195 0010487 338.0035  22.0740 15.07483217 13681
COSMOS 2610             
1 68758U 26083F   26197.76033839  .00000606  00000+0  45262-4 0  9991
2 68758  97.8087 336.1092 0009483 320.3142  39.7390 15.06627662 13655
COSMOS 2611             
1 68759U 26083G   26197.77625926  .00000863  00000+0  63149-4 0  9996
2 68759  97.8151 335.5815 0010332 326.9885  33.0696 15.06299359 13648
DAQI-2                  
1 68760U 26084A   26194.66919493 -.00000002  00000+0  98100-5 0  9991
2 68760  98.2866 268.7238 0002721  53.8730 306.2720 14.57596579 12755
COSMOS 2612             
1 68762U 26083H   26197.79899014  .00001408  00000+0  98076-4 0  9996
2 68762  97.8574 336.5001 0011727 313.9047  46.1210 15.07123935 13660
COSMOS 2613             
1 68763U 26083J   26197.78738383  .00001191  00000+0  86957-4 0  9991
2 68763  97.7845 336.1294 0006017 248.7036 111.3548 15.05625527 13661
COSMOS 2614             
1 68764U 26083K   26197.76753628  .00000633  00000+0  48001-4 0  9997
2 68764  97.7816 335.2352 0004773 279.1314  80.9372 15.05890546 13659
STARLINK-37168          
1 68766U 26086A   26197.61345025  .00003446  00000+0  10903-3 0  9998
2 68766  97.2842 234.0691 0001448 113.0320 247.1076 15.33438019 13591
STARLINK-37174          
1 68767U 26086B   26197.61073189  .00005849  00000+0  18340-3 0  9990
2 68767  97.2835 233.9236 0001957  88.2539 271.8928 15.33439808 13583
STARLINK-37279          
1 68768U 26086C   26197.67054704  .00007266  00000+0  22719-3 0  9999
2 68768  97.2826 233.9949 0000675 120.4517 239.6793 15.33441630 13595
STARLINK-36379          
1 68769U 26086D   26197.67326668  .00009490  00000+0  29591-3 0  9997
2 68769  97.2833 233.9882 0000665 118.2446 241.8864 15.33443227 13593
STARLINK-37417          
1 68770U 26086E   26197.66511091  .00004786  00000+0  15051-3 0  9993
2 68770  97.2836 234.0042 0001466 117.3387 242.8005 15.33437706 13595
